ONEWEB-0375             
1 49301U 21090Y   25294.76905899  .00000018  00000+0  12391-4 0  9992
2 49301  87.9202 321.9865 0001579  76.9634 283.1675 13.20770367199050
ONEWEB-0376             
1 49302U 21090Z   25294.66865669  .00000067  00000+0  13606-3 0  9995
2 49302  87.9261 352.4019 0001937 106.1058 254.0288 13.19724841194999
ONEWEB-0377             
1 49303U 21090AA  25294.60348714  .00000010  00000+0 -74760-5 0  9996
2 49303  87.9208 322.0164 0001993  89.2363 270.8998 13.20770556199026
ONEWEB-0378             
1 49304U 21090AB  25294.77709426  .00000041  00000+0  69138-4 0  9991
2 49304  87.9209 321.9970 0001743  91.5310 268.6023 13.20771621198311
ONEWEB-0379             
1 49305U 21090AC  25294.63694198  .00000200  00000+0  50606-3 0  9992
2 49305  87.9025 337.2266 0001738  99.3141 260.8186 13.14504340196225
ONEWEB-0380             
1 49306U 21090AD  25294.66549950  .00000025  00000+0  30031-4 0  9997
2 49306  87.9254 352.4281 0001837  92.5831 267.5512 13.19724258194960
ONEWEB-0381             
1 49307U 21090AE  25294.60019424 -.00000013  00000+0 -63303-4 0  9997
2 49307  87.9201 322.0234 0001734  87.1226 273.0106 13.20770550198332
ONEWEB-0382             
1 49308U 21090AF  25294.58756152  .00000018  00000+0  11895-4 0  9993
2 49308  87.9208 322.0178 0001594  90.3469 269.7847 13.20769942198322
ONEWEB-0383             
1 49309U 21090AG  25294.55450096  .00000057  00000+0  11859-3 0  9991
2 49309  87.9031 337.2258 0001658  98.6882 261.4436 13.14503205196248
ONEWEB-0384             
1 49310U 21090AH  25294.58199019  .00000094  00000+0  19852-3 0  9993
2 49310  87.9219 322.0499 0001304  90.6724 269.4558 13.20795488198330
ONEWEB-0385             
1 49311U 21090AJ  25294.57967876  .00000072  00000+0  14397-3 0  9992
2 49311  87.9199 322.0292 0001717  92.2252 267.9078 13.20771345198304
ONEWEB-0386             
1 49312U 21090AK  25294.59703250 -.00000002  00000+0 -37407-4 0  9992
2 49312  87.9211 322.0050 0001593  92.3331 267.7985 13.20770278198324
ONEWEB-0387             
1 49313U 21090AL  25294.58124284  .00000116  00000+0  25327-3 0  9997
2 49313  87.9200 322.0582 0001855  84.4337 275.7008 13.20769548198325
ONEWEB-0388             
1 49314U 21090AM  25294.66075963  .00000023  00000+0  26176-4 0  9997
2 49314  87.9246 352.4340 0001757  97.7482 262.3851 13.19724223194956
ONEWEB-0389             
1 50469U 21132A   25294.83508657  .00000019  00000+0  16863-4 0  9994
2 50469  87.9116  53.2666 0001504  88.0367 272.0937 13.17648585186696
ONEWEB-0390             
1 50470U 21132B   25294.83676565  .00000039  00000+0  66216-4 0  9999
2 50470  87.9110  53.2718 0001951  96.0399 264.0955 13.17647624186694
ONEWEB-0391             
1 50471U 21132C   25294.83846422  .00000029  00000+0  41885-4 0  9995
2 50471  87.9106  53.2822 0001750  70.7147 289.4173 13.17649680186690
