[{"OBJECT_NAME":"ONEWEB-0375","OBJECT_ID":"2021-090Y","EPOCH":"2025-10-21T18:27:26.696736","MEAN_MOTION":13.20770367,"ECCENTRICITY":0.0001579,"INCLINATION":87.9202,"RA_OF_ASC_NODE":321.9865,"ARG_OF_PERICENTER":76.9634,"MEAN_ANOMALY":283.1675,"EPHEMERIS_TYPE":0,"CLASSIFICATION_TYPE":"U","NORAD_CAT_ID":49301,"ELEMENT_SET_NO":999,"REV_AT_EPOCH":19905,"BSTAR":1.2391e-5,"MEAN_MOTION_DOT":1.8e-7,"MEAN_MOTION_DDOT":0},{"OBJECT_NAME":"ONEWEB-0376","OBJECT_ID":"2021-090Z","EPOCH":"2025-10-21T16:02:51.938016","MEAN_MOTION":13.19724841,"ECCENTRICITY":0.0001937,"INCLINATION":87.9261,"RA_OF_ASC_NODE":352.4019,"ARG_OF_PERICENTER":106.1058,"MEAN_ANOMALY":254.0288,"EPHEMERIS_TYPE":0,"CLASSIFICATION_TYPE":"U","NORAD_CAT_ID":49302,"ELEMENT_SET_NO":999,"REV_AT_EPOCH":19499,"BSTAR":0.00013606,"MEAN_MOTION_DOT":6.7e-7,"MEAN_MOTION_DDOT":0},{"OBJECT_NAME":"ONEWEB-0377","OBJECT_ID":"2021-090AA","EPOCH":"2025-10-21T14:29:01.288896","MEAN_MOTION":13.20770556,"ECCENTRICITY":0.0001993,"INCLINATION":87.9208,"RA_OF_ASC_NODE":322.0164,"ARG_OF_PERICENTER":89.2363,"MEAN_ANOMALY":270.8998,"EPHEMERIS_TYPE":0,"CLASSIFICATION_TYPE":"U","NORAD_CAT_ID":49303,"ELEMENT_SET_NO":999,"REV_AT_EPOCH":19902,"BSTAR":-7.476e-6,"MEAN_MOTION_DOT":1.0e-7,"MEAN_MOTION_DDOT":0},{"OBJECT_NAME":"ONEWEB-0378","OBJECT_ID":"2021-090AB","EPOCH":"2025-10-21T18:39:00.944064","MEAN_MOTION":13.20771621,"ECCENTRICITY":0.0001743,"INCLINATION":87.9209,"RA_OF_ASC_NODE":321.997,"ARG_OF_PERICENTER":91.531,"MEAN_ANOMALY":268.6023,"EPHEMERIS_TYPE":0,"CLASSIFICATION_TYPE":"U","NORAD_CAT_ID":49304,"ELEMENT_SET_NO":999,"REV_AT_EPOCH":19831,"BSTAR":6.9138e-5,"MEAN_MOTION_DOT":4.1e-7,"MEAN_MOTION_DDOT":0},{"OBJECT_NAME":"ONEWEB-0379","OBJECT_ID":"2021-090AC","EPOCH":"2025-10-21T15:17:11.787072","MEAN_MOTION":13.1450434,"ECCENTRICITY":0.0001738,"INCLINATION":87.9025,"RA_OF_ASC_NODE":337.2266,"ARG_OF_PERICENTER":99.3141,"MEAN_ANOMALY":260.8186,"EPHEMERIS_TYPE":0,"CLASSIFICATION_TYPE":"U","NORAD_CAT_ID":49305,"ELEMENT_SET_NO":999,"REV_AT_EPOCH":19622,"BSTAR":0.00050606,"MEAN_MOTION_DOT":2.0e-6,"MEAN_MOTION_DDOT":0},{"OBJECT_NAME":"ONEWEB-0380","OBJECT_ID":"2021-090AD","EPOCH":"2025-10-21T15:58:19.156800","MEAN_MOTION":13.19724258,"ECCENTRICITY":0.0001837,"INCLINATION":87.9254,"RA_OF_ASC_NODE":352.4281,"ARG_OF_PERICENTER":92.5831,"MEAN_ANOMALY":267.5512,"EPHEMERIS_TYPE":0,"CLASSIFICATION_TYPE":"U","NORAD_CAT_ID":49306,"ELEMENT_SET_NO":999,"REV_AT_EPOCH":19496,"BSTAR":3.0031e-5,"MEAN_MOTION_DOT":2.5e-7,"MEAN_MOTION_DDOT":0},{"OBJECT_NAME":"ONEWEB-0381","OBJECT_ID":"2021-090AE","EPOCH":"2025-10-21T14:24:16.782336","MEAN_MOTION":13.2077055,"ECCENTRICITY":0.0001734,"INCLINATION":87.9201,"RA_OF_ASC_NODE":322.0234,"ARG_OF_PERICENTER":87.1226,"MEAN_ANOMALY":273.0106,"EPHEMERIS_TYPE":0,"CLASSIFICATION_TYPE":"U","NORAD_CAT_ID":49307,"ELEMENT_SET_NO":999,"REV_AT_EPOCH":19833,"BSTAR":-6.3303e-5,"MEAN_MOTION_DOT":-1.3e-7,"MEAN_MOTION_DDOT":0},{"OBJECT_NAME":"ONEWEB-0382","OBJECT_ID":"2021-090AF","EPOCH":"2025-10-21T14:06:05.315328","MEAN_MOTION":13.20769942,"ECCENTRICITY":0.0001594,"INCLINATION":87.9208,"RA_OF_ASC_NODE":322.0178,"ARG_OF_PERICENTER":90.3469,"MEAN_ANOMALY":269.7847,"EPHEMERIS_TYPE":0,"CLASSIFICATION_TYPE":"U","NORAD_CAT_ID":49308,"ELEMENT_SET_NO":999,"REV_AT_EPOCH":19832,"BSTAR":1.1895e-5,"MEAN_MOTION_DOT":1.8e-7,"MEAN_MOTION_DDOT":0},{"OBJECT_NAME":"ONEWEB-0383","OBJECT_ID":"2021-090AG","EPOCH":"2025-10-21T13:18:28.882944","MEAN_MOTION":13.14503205,"ECCENTRICITY":0.0001658,"INCLINATION":87.9031,"RA_OF_ASC_NODE":337.2258,"ARG_OF_PERICENTER":98.6882,"MEAN_ANOMALY":261.4436,"EPHEMERIS_TYPE":0,"CLASSIFICATION_TYPE":"U","NORAD_CAT_ID":49309,"ELEMENT_SET_NO":999,"REV_AT_EPOCH":19624,"BSTAR":0.00011859,"MEAN_MOTION_DOT":5.7e-7,"MEAN_MOTION_DDOT":0},{"OBJECT_NAME":"ONEWEB-0384","OBJECT_ID":"2021-090AH","EPOCH":"2025-10-21T13:58:03.952416","MEAN_MOTION":13.20795488,"ECCENTRICITY":0.0001304,"INCLINATION":87.9219,"RA_OF_ASC_NODE":322.0499,"ARG_OF_PERICENTER":90.6724,"MEAN_ANOMALY":269.4558,"EPHEMERIS_TYPE":0,"CLASSIFICATION_TYPE":"U","NORAD_CAT_ID":49310,"ELEMENT_SET_NO":999,"REV_AT_EPOCH":19833,"BSTAR":0.00019852,"MEAN_MOTION_DOT":9.4e-7,"MEAN_MOTION_DDOT":0},{"OBJECT_NAME":"ONEWEB-0385","OBJECT_ID":"2021-090AJ","EPOCH":"2025-10-21T13:54:44.244864","MEAN_MOTION":13.20771345,"ECCENTRICITY":0.0001717,"INCLINATION":87.9199,"RA_OF_ASC_NODE":322.0292,"ARG_OF_PERICENTER":92.2252,"MEAN_ANOMALY":267.9078,"EPHEMERIS_TYPE":0,"CLASSIFICATION_TYPE":"U","NORAD_CAT_ID":49311,"ELEMENT_SET_NO":999,"REV_AT_EPOCH":19830,"BSTAR":0.00014397,"MEAN_MOTION_DOT":7.2e-7,"MEAN_MOTION_DDOT":0},{"OBJECT_NAME":"ONEWEB-0386","OBJECT_ID":"2021-090AK","EPOCH":"2025-10-21T14:19:43.608000","MEAN_MOTION":13.20770278,"ECCENTRICITY":0.0001593,"INCLINATION":87.9211,"RA_OF_ASC_NODE":322.005,"ARG_OF_PERICENTER":92.3331,"MEAN_ANOMALY":267.7985,"EPHEMERIS_TYPE":0,"CLASSIFICATION_TYPE":"U","NORAD_CAT_ID":49312,"ELEMENT_SET_NO":999,"REV_AT_EPOCH":19832,"BSTAR":-3.7407e-5,"MEAN_MOTION_DOT":-2.0e-8,"MEAN_MOTION_DDOT":0},{"OBJECT_NAME":"ONEWEB-0387","OBJECT_ID":"2021-090AL","EPOCH":"2025-10-21T13:56:59.381376","MEAN_MOTION":13.20769548,"ECCENTRICITY":0.0001855,"INCLINATION":87.92,"RA_OF_ASC_NODE":322.0582,"ARG_OF_PERICENTER":84.4337,"MEAN_ANOMALY":275.7008,"EPHEMERIS_TYPE":0,"CLASSIFICATION_TYPE":"U","NORAD_CAT_ID":49313,"ELEMENT_SET_NO":999,"REV_AT_EPOCH":19832,"BSTAR":0.00025327,"MEAN_MOTION_DOT":1.16e-6,"MEAN_MOTION_DDOT":0},{"OBJECT_NAME":"ONEWEB-0388","OBJECT_ID":"2021-090AM","EPOCH":"2025-10-21T15:51:29.632032","MEAN_MOTION":13.19724223,"ECCENTRICITY":0.0001757,"INCLINATION":87.9246,"RA_OF_ASC_NODE":352.434,"ARG_OF_PERICENTER":97.7482,"MEAN_ANOMALY":262.3851,"EPHEMERIS_TYPE":0,"CLASSIFICATION_TYPE":"U","NORAD_CAT_ID":49314,"ELEMENT_SET_NO":999,"REV_AT_EPOCH":19495,"BSTAR":2.6176e-5,"MEAN_MOTION_DOT":2.3e-7,"MEAN_MOTION_DDOT":0},{"OBJECT_NAME":"ONEWEB-0389","OBJECT_ID":"2021-132A","EPOCH":"2025-10-21T20:02:31.479648","MEAN_MOTION":13.17648585,"ECCENTRICITY":0.0001504,"INCLINATION":87.9116,"RA_OF_ASC_NODE":53.2666,"ARG_OF_PERICENTER":88.0367,"MEAN_ANOMALY":272.0937,"EPHEMERIS_TYPE":0,"CLASSIFICATION_TYPE":"U","NORAD_CAT_ID":50469,"ELEMENT_SET_NO":999,"REV_AT_EPOCH":18669,"BSTAR":1.6863e-5,"MEAN_MOTION_DOT":1.9e-7,"MEAN_MOTION_DDOT":0},{"OBJECT_NAME":"ONEWEB-0390","OBJECT_ID":"2021-132B","EPOCH":"2025-10-21T20:04:56.552160","MEAN_MOTION":13.17647624,"ECCENTRICITY":0.0001951,"INCLINATION":87.911,"RA_OF_ASC_NODE":53.2718,"ARG_OF_PERICENTER":96.0399,"MEAN_ANOMALY":264.0955,"EPHEMERIS_TYPE":0,"CLASSIFICATION_TYPE":"U","NORAD_CAT_ID":50470,"ELEMENT_SET_NO":999,"REV_AT_EPOCH":18669,"BSTAR":6.6216e-5,"MEAN_MOTION_DOT":3.9e-7,"MEAN_MOTION_DDOT":0},{"OBJECT_NAME":"ONEWEB-0391","OBJECT_ID":"2021-132C","EPOCH":"2025-10-21T20:07:23.308608","MEAN_MOTION":13.1764968,"ECCENTRICITY":0.000175,"INCLINATION":87.9106,"RA_OF_ASC_NODE":53.2822,"ARG_OF_PERICENTER":70.7147,"MEAN_ANOMALY":289.4173,"EPHEMERIS_TYPE":0,"CLASSIFICATION_TYPE":"U","NORAD_CAT_ID":50471,"ELEMENT_SET_NO":999,"REV_AT_EPOCH":18669,"BSTAR":4.1885e-5,"MEAN_MOTION_DOT":2.9e-7,"MEAN_MOTION_DDOT":0}]
